KUIPER-00074            
1 64821U 25151F   25302.83062476  .00030066  00000+0  39429-2 0  9996
2 64821  51.9004 149.2427 0012502 189.7711 170.3010 14.80015526 16062
KUIPER-00075            
1 64822U 25151G   25302.83827557  .00061799  00000+0  15427-2 0  9995
2 64822  51.8750 137.2263 0005945 156.5046 203.6215 15.39571456 16231
KUIPER-00076            
1 64823U 25151H   25302.82783183  .00016555  00000+0  21895-2 0  9997
2 64823  51.8995 151.7505 0003928 179.0166 181.0805 14.80040163 16038
KUIPER-00077            
1 64824U 25151J   25302.88998402  .00003844  00000+0  53325-3 0  9997
2 64824  51.8996 156.4772 0006613 139.2438 220.9020 14.79908662 15971
KUIPER-00078            
1 64825U 25151K   25302.85881721 -.00003379  00000+0 -41449-3 0  9999
2 64825  51.8986 154.1144 0007061 201.3186 158.7483 14.79883328 16005
KUIPER-00079            
1 64826U 25151L   25302.85791525  .00004862  00000+0  66544-3 0  9991
2 64826  51.8984 158.8095 0012310 162.3095 197.8298 14.79958471 17133
KUIPER-00080            
1 64827U 25151M   25302.85340483  .00003749  00000+0  52099-3 0  9998
2 64827  51.8986 159.1315 0005592 179.0445 181.0529 14.79900216 15935
KUIPER-00082            
1 64828U 25151N   25303.83336806 -.00023278  00000+0 -30178-2 0  9996
2 64828  51.9008 142.3085 0004445 205.3864  86.2878 14.80161151  3584
KUIPER-00083            
1 64829U 25151P   25302.89254338  .00004896  00000+0  67042-3 0  9995
2 64829  51.8986 153.9648 0010765 167.1068 193.0171 14.79936886 17193
KUIPER-00084            
1 64830U 25151Q   25302.61170185  .00000425  00000+0  85107-4 0  9991
2 64830  51.8986 165.1923 0011998 140.7140 219.4695 14.79929632 15826
KUIPER-00085            
1 64831U 25151R   25303.83336806 -.00029641  00000+0 -39007-2 0  9990
2 64831  51.9014 142.3108 0007554 178.8953 296.1043 14.79645269  5738
KUIPER-00086            
1 64832U 25151S   25302.85625262  .00003949  00000+0  54683-3 0  9998
2 64832  51.9011 156.6269 0011433 161.8303 198.3070 14.79907465 15962
KUIPER-00087            
1 64833U 25151T   25303.83336806 -.00053495  00000+0 -37734-2 0  9991
2 64833  51.8893 136.4424 0003671 200.8438 104.2850 15.04618579  3230
KUIPER-00089            
1 64834U 25151U   25303.83336806 -.00019084  00000+0 -20158-2 0  9990
2 64834  51.8970 140.0173 0001363 207.9198 136.4080 14.88455093  3891
KUIPER-00090            
1 64835U 25151V   25303.83336806  .00014939  00000+0  86090-3 0  9991
2 64835  51.8909 135.5668 0004361 229.8213  77.0211 15.12578548  5903
KUIPER-00091            
1 64836U 25151W   25303.83336806 -.00939487  00000+0 -81888-1 0  9996
2 64836  51.8902 138.0362 0007342 207.6984 273.2360 14.99094001  2922
KUIPER-00092            
1 64837U 25151X   25302.86273418  .00004004  00000+0  54617-3 0  9996
2 64837  51.8998 149.0829 0006717 163.6180 196.5001 14.80535073 17285
KUIPER-00093            
1 64838U 25151Y   25303.26661126  .00004233  00000+0  58319-3 0  9996
2 64838  51.8972 149.8090 0014098 175.0409 185.0696 14.79953344 16092
KUIPER-00094            
1 64839U 25151Z   25303.83336806  .00000024  00000+0  21686-4 0  9996
2 64839  51.8881 139.4238 0006076 191.8623 333.5113 15.03671444  4426
KUIPER-00081            
1 65132U 25171A   25302.92254009  .00047941  00000+0  12550-2 0  9995
2 65132  51.8758  21.1115 0005854  40.9906 319.1520 15.38227877 13469
KUIPER-00088            
1 65133U 25171B   25303.83336806 -.00920399  00000+0 -76812-1 0  9992
2 65133  51.8981  20.9617 0007351  49.6845  27.2586 15.01147930  4374
KUIPER-00095            
1 65134U 25171C   25302.95438716  .00069919  00000+0  18476-2 0  9991
2 65134  51.8752  21.3133 0005129  60.4582 299.6916 15.37774406 13464
KUIPER-00096            
1 65135U 25171D   25303.83336806  .00009463  00000+0  39515-3 0  9993
2 65135  51.8789  17.5661 0008800  68.3839 233.0738 15.24273516  5040
KUIPER-00097            
1 65136U 25171E   25303.83336806 -.00027865  00000+0 -14433-2 0  9993
2 65136  51.8901  18.8506 0006802  56.4384 284.8582 15.15454176  5327
KUIPER-00098            
1 65137U 25171F   25303.83336806 -.01685416  00000+0 -11173+0 0  9992
2 65137  51.8849  19.5535 0007325  53.9088 355.0217 15.10009301  2833
KUIPER-00099            
1 65138U 25171G   25303.83336806 -.00079261  00000+0 -24900-2 0  9992
2 65138  51.8778  16.8804 0007804  59.8731 237.0081 15.32634110  4102
KUIPER-00100            
1 65139U 25171H   25303.84486313  .00032487  00000+0  85472-3 0  9992
2 65139  51.8765  16.7874 0006132  50.7484 309.4046 15.38255553 13597
KUIPER-00102            
1 65140U 25171J   25303.83336806 -.00849427  00000+0 -27107-1 0  9995
2 65140  51.8780  17.0948 0007731  54.7702 116.1116 15.34461515  5118
KUIPER-00103            
1 65141U 25171K   25303.83336806 -.00038096  00000+0 -45476-2 0  9998
2 65141  51.8984  24.8580 0007196  63.2913 245.1065 14.83820791  3478
KUIPER-00104            
1 65142U 25171L   25303.83336806 -.01257029  00000+0 -58174-1 0  9997
2 65142  51.8833  17.8550 0006414  65.8380 138.6209 15.22622537  5424
KUIPER-00105            
1 65143U 25171M   25303.83336806 -.00046847  00000+0 -36472-2 0  9999
2 65143  51.8895  21.1176 0010592  31.2544 232.6840 15.00798542  5743
KUIPER-00106            
1 65144U 25171N   25302.96842136  .00011266  00000+0  10207-2 0  9994
2 65144  51.8946  28.4855 0009223  25.5086 334.6337 14.95746158 13361
KUIPER-00107            
1 65145U 25171P   25302.93659365  .00039574  00000+0  10440-2 0  9993
2 65145  51.8758  21.2094 0005102  45.6871 314.4533 15.38082596 13468
KUIPER-00108            
1 65146U 25171Q   25303.83336806 -.00026984  00000+0 -13511-2 0  9991
2 65146  51.8895  18.6199 0005886  48.6618 100.5283 15.16627680  5178
KUIPER-00109            
1 65147U 25171R   25303.83336806 -.00627639  00000+0 -22968-1 0  9991
2 65147  51.8797  17.1523 0010844  40.1290 127.0959 15.29742288  5639
KUIPER-00110            
1 65148U 25171S   25303.83336806 -.00052067  00000+0 -50386-2 0  9995
2 65148  51.8945  22.9042 0010406  39.9230  40.1605 14.92419407  2980
KUIPER-00111            
1 65149U 25171T   25303.83336806 -.00006919  00000+0 -87519-3 0  9990
2 65149  51.8983  27.3062 0009532  54.1965 115.8076 14.80088555  5850
KUIPER-00112            
1 65150U 25171U   25303.83336806  .00015754  00000+0  54716-3 0  9990
2 65150  51.8793  17.3453 0008129  84.9433 328.8278 15.29895303  5284
KUIPER-00114            
1 65151U 25171V   25302.98824517 -.00012149  00000+0 -15658-2 0  9995
2 65151  51.9025  33.5699 0005630  47.3362 312.8074 14.79962863 13280
KUIPER-00115            
1 65152U 25171W   25303.83336806 -.00965256  00000+0 -97569-1 0  9996
2 65152  51.9101  22.7496 0011254  63.3180 209.3968 14.93389410  5040
KUIPER-00116            
1 65153U 25171X   25303.83336806 -.00018825  00000+0 -22105-2 0  9993
2 65153  51.8993  27.2709 0009606  24.0378  22.9257 14.84106905  5683
KUIPER-00118            
1 65154U 25171Y   25302.95449079 -.00014187  00000+0 -18353-2 0  9990
2 65154  51.9006  33.6938 0001560  72.3276 287.7857 14.79943315 13289
KUIPER-00119            
1 65155U 25171Z   25303.83336806 -.00401107  00000+0 -27163-1 0  9992
2 65155  51.8943  19.7587 0007247  31.2686 201.8019 15.08050166  4802
KUIPER-00120            
1 65762U 25217A   25303.20045393  .00032389  00000+0  12388-2 0  9990
2 65762  51.8702 275.8787 0009582 227.0493 132.9686 15.26259469  5331
KUIPER-00132            
1 65763U 25217B   25303.19742759  .00052022  00000+0  14588-2 0  9999
2 65763  51.8659 275.1498 0005337 216.0827 143.9800 15.36063881  5341
KUIPER-00133            
1 65764U 25217C   25303.83336806 -.00573099  00000+0 -22761-1 0  9998
2 65764  51.8720 272.7819 0007572 235.0218  77.8177 15.26925921  5140
KUIPER-00139            
1 65765U 25217D   25303.83336806 -.00493249  00000+0 -15779-1 0  9998
2 65765  51.8676 272.1615 0005757 228.7279  16.1675 15.33910968  4150
KUIPER-00142            
1 65766U 25217E   25303.17604948  .00053525  00000+0  14578-2 0  9995
2 65766  51.8702 275.0247 0002988 172.5578 187.5453 15.36967568  5345
KUIPER-00145            
1 65767U 25217F   25303.18041895  .00051082  00000+0  14038-2 0  9990
2 65767  51.8728 275.0547 0003338 196.9149 163.1726 15.36709025  5346
KUIPER-00147            
1 65768U 25217G   25303.20034181  .00064436  00000+0  18227-2 0  9995
2 65768  51.8657 275.1713 0006040 215.2886 144.7701 15.35693288  5340
KUIPER-00148            
1 65769U 25217H   25303.28198720  .00036403  00000+0  10602-2 0  9996
2 65769  51.8599 274.9513 0008813 233.3497 126.6678 15.35017500  5350
KUIPER-00150            
1 65770U 25217J   25303.83336806  .00071016  00000+0  25040-2 0  9999
2 65770  51.8620 272.4447 0008960 238.0198 208.7653 15.28580688  4997
KUIPER-00151            
1 65771U 25217K   25303.18448808  .00068336  00000+0  18758-2 0  9993
2 65771  51.8692 275.0767 0004611 195.5285 164.5560 15.36609674  5346
KUIPER-00152            
1 65772U 25217L   25303.28953794  .00026551  00000+0  71490-3 0  9996
2 65772  51.8719 274.2876 0002881 111.7501 248.3792 15.37659862  5362
KUIPER-00153            
1 65773U 25217M   25303.83336806 -.00574895  00000+0 -21842-1 0  9992
2 65773  51.8660 272.4501 0007499 236.3576 234.0607 15.28380868  5082
KUIPER-00155            
1 65774U 25217N   25303.19304002  .00246313  00000+0  67443-2 0  9992
2 65774  51.8667 275.1247 0002361 232.6032 127.4740 15.35829824  5346
KUIPER-00156            
1 65775U 25217P   25303.23058154  .00030145  00000+0  81500-3 0  9997
2 65775  51.8724 274.6438 0002594 140.9253 219.1922 15.37464831  5358
KUIPER-00158            
1 65776U 25217Q   25303.18723658  .00045096  00000+0  12515-2 0  9990
2 65776  51.8718 275.0962 0004555 200.9355 159.1446 15.36456183  5341
KUIPER-00163            
1 65777U 25217R   25303.83336806 -.00732317  00000+0 -23930-1 0  9991
2 65777  51.8628 272.1794 0006671 227.1385 357.2015 15.33768480  1306
